{
    "links": {
        "self": "http://www.neowsapp.com/rest/v1/neo/3774604?api_key=iIulBulltgU6a56xZRHN4H3l9WmuAYTsLGpBGhQ2"
    },
    "id": "3774604",
    "neo_reference_id": "3774604",
    "name": "(2017 JV2)",
    "designation": "2017 JV2",
    "nasa_jpl_url": "http://ssd.jpl.nasa.gov/sbdb.cgi?sstr=3774604",
    "absolute_magnitude_h": 22.6,
    "estimated_diameter": {
        "kilometers": {
            "estimated_diameter_min": 0.0802703167,
            "estimated_diameter_max": 0.1794898848
        },
        "meters": {
            "estimated_diameter_min": 80.2703167283,
            "estimated_diameter_max": 179.4898847799
        },
        "miles": {
            "estimated_diameter_min": 0.049877647,
            "estimated_diameter_max": 0.1115298092
        },
        "feet": {
            "estimated_diameter_min": 263.3540659348,
            "estimated_diameter_max": 588.8775935812
        }
    },
    "is_potentially_hazardous_asteroid": false,
    "close_approach_data": [
        {
            "close_approach_date": "2007-05-25",
            "close_approach_date_full": "2007-May-25 16:16",
            "epoch_date_close_approach": 1180109760000,
            "relative_velocity": {
                "kilometers_per_second": "16.7697194681",
                "kilometers_per_hour": "60370.9900851737",
                "miles_per_hour": "37512.1854782014"
            },
            "miss_distance": {
                "astronomical": "0.4120386208",
                "lunar": "160.2830234912",
                "kilometers": "61640100.029417696",
                "miles": "38301382.0995923648"
            },
            "orbiting_body": "Earth"
        },
        {
            "close_approach_date": "2012-05-20",
            "close_approach_date_full": "2012-May-20 14:54",
            "epoch_date_close_approach": 1337525640000,
            "relative_velocity": {
                "kilometers_per_second": "13.5654008368",
                "kilometers_per_hour": "48835.4430125351",
                "miles_per_hour": "30344.4451318721"
            },
            "miss_distance": {
                "astronomical": "0.2224603835",
                "lunar": "86.5370891815",
                "kilometers": "33279599.530983145",
                "miles": "20678984.251311601"
            },
            "orbiting_body": "Earth"
        },
        {
            "close_approach_date": "2017-05-17",
            "close_approach_date_full": "2017-May-17 22:19",
            "epoch_date_close_approach": 1495059540000,
            "relative_velocity": {
                "kilometers_per_second": "11.9142826505",
                "kilometers_per_hour": "42891.417541679",
                "miles_per_hour": "26651.0588608283"
            },
            "miss_distance": {
                "astronomical": "0.1140896119",
                "lunar": "44.3808590291",
                "kilometers": "17067562.929366653",
                "miles": "10605291.8303916914"
            },
            "orbiting_body": "Earth"
        },
        {
            "close_approach_date": "2022-05-16",
            "close_approach_date_full": "2022-May-16 21:45",
            "epoch_date_close_approach": 1652737500000,
            "relative_velocity": {
                "kilometers_per_second": "12.0991845364",
                "kilometers_per_hour": "43557.0643309349",
                "miles_per_hour": "27064.6658894078"
            },
            "miss_distance": {
                "astronomical": "0.2372438775",
                "lunar": "92.2878683475",
                "kilometers": "35491178.744540925",
                "miles": "22053195.851577765"
            },
            "orbiting_body": "Earth"
        },
        {
            "close_approach_date": "2027-05-19",
            "close_approach_date_full": "2027-May-19 04:10",
            "epoch_date_close_approach": 1810699800000,
            "relative_velocity": {
                "kilometers_per_second": "13.5840608156",
                "kilometers_per_hour": "48902.6189361809",
                "miles_per_hour": "30386.1856384286"
            },
            "miss_distance": {
                "astronomical": "0.4244987091",
                "lunar": "165.1299978399",
                "kilometers": "63504102.699109617",
                "miles": "39459619.6503500346"
            },
            "orbiting_body": "Earth"
        }
    ],
    "orbital_data": {
        "orbit_id": "9",
        "orbit_determination_date": "2017-05-29 06:18:19",
        "first_observation_date": "2017-05-06",
        "last_observation_date": "2017-05-28",
        "data_arc_in_days": 22,
        "observations_used": 97,
        "orbit_uncertainty": "7",
        "minimum_orbit_intersection": ".113849",
        "jupiter_tisserand_invariant": "4.654",
        "epoch_osculation": "2459000.5",
        "eccentricity": ".2093728820574028",
        "semi_major_axis": "1.399662693528845",
        "inclination": "22.54806404070771",
        "ascending_node_longitude": "59.45413320161747",
        "orbital_period": "604.8302551346436",
        "perihelion_distance": "1.106611281476483",
        "perihelion_argument": "153.0519837147038",
        "aphelion_distance": "1.692714105581206",
        "perihelion_time": "2459074.348567065274",
        "mean_anomaly": "316.0447184680264",
        "mean_motion": ".5952083199274796",
        "equinox": "J2000",
        "orbit_class": {
            "orbit_class_type": "AMO",
            "orbit_class_description": "Near-Earth asteroid orbits similar to that of 1221 Amor",
            "orbit_class_range": "1.017 AU < q (perihelion) < 1.3 AU"
        }
    },
    "is_sentry_object": false
}